{
  "type": "FeatureCollection",
  "features": [
    {
      "type": "Feature",
      "properties": {
        "norad_id": 56564,
        "name": "BEIDOU-3 G4 (C62)",
        "group": "gnss",
        "lat": -0.09185174005726991,
        "lon": 128.33918149720515,
        "alt_km": 35777.55778740603,
        "timestamp": "2025-12-05T16:54:14.895724+00:00",
        "meta_object_name": "BEIDOU-3 G4 (C62)",
        "meta_object_id": "2023-066A",
        "meta_epoch": "2025-12-05T05:53:56.141952",
        "meta_mean_motion": 1.0027092,
        "meta_eccentricity": 0.00032408,
        "meta_inclination": 0.8323,
        "meta_ra_of_asc_node": 301.4128,
        "meta_arg_of_pericenter": 236.5072,
        "meta_mean_anomaly": 144.9372,
        "meta_ephemeris_type": 0,
        "meta_classification_type": "U",
        "meta_norad_cat_id": 56564,
        "meta_element_set_no": 999,
        "meta_rev_at_epoch": 945,
        "meta_bstar": 0,
        "meta_mean_motion_dot": -9.8e-07,
        "meta_mean_motion_ddot": 0,
        "tle_line1": "1 56564U 23066A   25339.24578868 -.00000098  00000+0  00000+0 0  9999",
        "tle_line2": "2 56564   0.8323 301.4128 0003240 236.5072 144.9372  1.00270920  9456"
      },
      "geometry": {
        "type": "Point",
        "coordinates": [
          128.33918149720515,
          -0.09185174005726991
        ]
      }
    },
    {
      "type": "Feature",
      "properties": {
        "norad_id": 56759,
        "name": "NVS-01 (IRNSS-1J)",
        "group": "gnss",
        "lat": -1.132070848483011,
        "lon": 97.74874376318306,
        "alt_km": 35822.6667033032,
        "timestamp": "2025-12-05T16:54:14.895734+00:00",
        "meta_object_name": "NVS-01 (IRNSS-1J)",
        "meta_object_id": "2023-076A",
        "meta_epoch": "2025-12-05T05:45:11.979072",
        "meta_mean_motion": 1.0026634,
        "meta_eccentricity": 0.00086949,
        "meta_inclination": 2.6378,
        "meta_ra_of_asc_node": 251.8727,
        "meta_arg_of_pericenter": 6.9466,
        "meta_mean_anomaly": 31.2955,
        "meta_ephemeris_type": 0,
        "meta_classification_type": "U",
        "meta_norad_cat_id": 56759,
        "meta_element_set_no": 999,
        "meta_rev_at_epoch": 917,
        "meta_bstar": 0,
        "meta_mean_motion_dot": -3.22e-06,
        "meta_mean_motion_ddot": 0,
        "tle_line1": "1 56759U 23076A   25339.23972198 -.00000322  00000+0  00000+0 0  9999",
        "tle_line2": "2 56759   2.6378 251.8727 0008694   6.9466  31.2955  1.00266340  9174"
      },
      "geometry": {
        "type": "Point",
        "coordinates": [
          97.74874376318306,
          -1.132070848483011
        ]
      }
    },
    {
      "type": "Feature",
      "properties": {
        "norad_id": 57517,
        "name": "COSMOS 2569 (703K)",
        "group": "gnss",
        "lat": -13.345739319948326,
        "lon": -94.55524734413066,
        "alt_km": 19132.991522837317,
        "timestamp": "2025-12-05T16:54:14.895749+00:00",
        "meta_object_name": "COSMOS 2569 (703K)",
        "meta_object_id": "2023-114A",
        "meta_epoch": "2025-12-01T16:42:34.469856",
        "meta_mean_motion": 2.13103822,
        "meta_eccentricity": 0.0010109,
        "meta_inclination": 65.1883,
        "meta_ra_of_asc_node": 79.2867,
        "meta_arg_of_pericenter": 287.0179,
        "meta_mean_anomaly": 72.8703,
        "meta_ephemeris_type": 0,
        "meta_classification_type": "U",
        "meta_norad_cat_id": 57517,
        "meta_element_set_no": 999,
        "meta_rev_at_epoch": 1805,
        "meta_bstar": 0,
        "meta_mean_motion_dot": -1.6e-07,
        "meta_mean_motion_ddot": 0,
        "tle_line1": "1 57517U 23114A   25335.69623229 -.00000016  00000+0  00000+0 0  9999",
        "tle_line2": "2 57517  65.1883  79.2867 0010109 287.0179  72.8703  2.13103822 18055"
      },
      "geometry": {
        "type": "Point",
        "coordinates": [
          -94.55524734413066,
          -13.345739319948326
        ]
      }
    },
    {
      "type": "Feature",
      "properties": {
        "norad_id": 58654,
        "name": "BEIDOU-3 M28 (C50)",
        "group": "gnss",
        "lat": 11.977357715046963,
        "lon": -119.50496907432404,
        "alt_km": 21527.850593137744,
        "timestamp": "2025-12-05T16:54:14.895763+00:00",
        "meta_object_name": "BEIDOU-3 M28 (C50)",
        "meta_object_id": "2023-207A",
        "meta_epoch": "2025-12-03T07:26:02.398272",
        "meta_mean_motion": 1.86229561,
        "meta_eccentricity": 0.00020314,
        "meta_inclination": 55.5764,
        "meta_ra_of_asc_node": 68.9209,
        "meta_arg_of_pericenter": 265.1091,
        "meta_mean_anomaly": 94.871,
        "meta_ephemeris_type": 0,
        "meta_classification_type": "U",
        "meta_norad_cat_id": 58654,
        "meta_element_set_no": 999,
        "meta_rev_at_epoch": 1319,
        "meta_bstar": 0,
        "meta_mean_motion_dot": -5.1e-07,
        "meta_mean_motion_ddot": 0,
        "tle_line1": "1 58654U 23207A   25337.30974998 -.00000051  00000+0  00000+0 0  9996",
        "tle_line2": "2 58654  55.5764  68.9209 0002031 265.1091  94.8710  1.86229561 13199"
      },
      "geometry": {
        "type": "Point",
        "coordinates": [
          -119.50496907432404,
          11.977357715046963
        ]
      }
    },
    {
      "type": "Feature",
      "properties": {
        "norad_id": 58655,
        "name": "BEIDOU-3 M26 (C48)",
        "group": "gnss",
        "lat": -44.9750034989342,
        "lon": 25.67657984483579,
        "alt_km": 21527.105703770332,
        "timestamp": "2025-12-05T16:54:14.895774+00:00",
        "meta_object_name": "BEIDOU-3 M26 (C48)",
        "meta_object_id": "2023-207B",
        "meta_epoch": "2025-12-03T02:34:45.227424",
        "meta_mean_motion": 1.86231091,
        "meta_eccentricity": 0.00034591,
        "meta_inclination": 55.5782,
        "meta_ra_of_asc_node": 68.9139,
        "meta_arg_of_pericenter": 250.5367,
        "meta_mean_anomaly": 109.429,
        "meta_ephemeris_type": 0,
        "meta_classification_type": "U",
        "meta_norad_cat_id": 58655,
        "meta_element_set_no": 999,
        "meta_rev_at_epoch": 1317,
        "meta_bstar": 0,
        "meta_mean_motion_dot": -5e-07,
        "meta_mean_motion_ddot": 0,
        "tle_line1": "1 58655U 23207B   25337.10746791 -.00000050  00000+0  00000+0 0  9992",
        "tle_line2": "2 58655  55.5782  68.9139 0003459 250.5367 109.4290  1.86231091 13176"
      },
      "geometry": {
        "type": "Point",
        "coordinates": [
          25.67657984483579,
          -44.9750034989342
        ]
      }
    },
    {
      "type": "Feature",
      "properties": {
        "norad_id": 59598,
        "name": "GSAT0225 (GALILEO 29)",
        "group": "gnss",
        "lat": -53.68539547031435,
        "lon": 34.18505490860784,
        "alt_km": 23229.806044236964,
        "timestamp": "2025-12-05T16:54:14.895784+00:00",
        "meta_object_name": "GSAT0225 (GALILEO 29)",
        "meta_object_id": "2024-079A",
        "meta_epoch": "2025-12-04T01:47:23.955648",
        "meta_mean_motion": 1.70474518,
        "meta_eccentricity": 0.0002,
        "meta_inclination": 54.9978,
        "meta_ra_of_asc_node": 106.5374,
        "meta_arg_of_pericenter": 171.9845,
        "meta_mean_anomaly": 188.0819,
        "meta_ephemeris_type": 0,
        "meta_classification_type": "U",
        "meta_norad_cat_id": 59598,
        "meta_element_set_no": 999,
        "meta_rev_at_epoch": 999,
        "meta_bstar": 0,
        "meta_mean_motion_dot": 1.5e-07,
        "meta_mean_motion_ddot": 0,
        "tle_line1": "1 59598U 24079A   25338.07458282  .00000015  00000+0  00000+0 0  9999",
        "tle_line2": "2 59598  54.9978 106.5374 0002000 171.9845 188.0819  1.70474518  9992"
      },
      "geometry": {
        "type": "Point",
        "coordinates": [
          34.18505490860784,
          -53.68539547031435
        ]
      }
    },
    {
      "type": "Feature",
      "properties": {
        "norad_id": 59600,
        "name": "GSAT0227 (GALILEO 30)",
        "group": "gnss",
        "lat": 9.90484507561009,
        "lon": -80.55039396958242,
        "alt_km": 23215.21804847586,
        "timestamp": "2025-12-05T16:54:14.895794+00:00",
        "meta_object_name": "GSAT0227 (GALILEO 30)",
        "meta_object_id": "2024-079C",
        "meta_epoch": "2025-12-03T16:06:35.879040",
        "meta_mean_motion": 1.70474617,
        "meta_eccentricity": 0.00034037,
        "meta_inclination": 54.9912,
        "meta_ra_of_asc_node": 106.5479,
        "meta_arg_of_pericenter": 113.2328,
        "meta_mean_anomaly": 246.7577,
        "meta_ephemeris_type": 0,
        "meta_classification_type": "U",
        "meta_norad_cat_id": 59600,
        "meta_element_set_no": 999,
        "meta_rev_at_epoch": 1003,
        "meta_bstar": 0,
        "meta_mean_motion_dot": 1.8e-07,
        "meta_mean_motion_ddot": 0,
        "tle_line1": "1 59600U 24079C   25337.67124860  .00000018  00000+0  00000+0 0  9993",
        "tle_line2": "2 59600  54.9912 106.5479 0003403 113.2328 246.7577  1.70474617 10033"
      },
      "geometry": {
        "type": "Point",
        "coordinates": [
          -80.55039396958242,
          9.90484507561009
        ]
      }
    }
  ]
}